POLARIS DAWN            
1 61042U 24161A   24258.80224095  .00515806  11082-4  43826-3 0  9995
2 61042  51.6521   5.1737 0197386  64.5271 297.6008 15.83847020   670
